0 VNREDSAT 1
1 39160U 13021B   13282.40707876  .00000299  00000-0  67571-4 0  5043
2 39160 098.1239 358.6310 0001416 078.3969 281.7403 14.62916293 22690
0 VNREDSAT 1
1 39160U 13021B   13282.74906528  .00000307  00000-0  69061-4 0  5052
2 39160 098.1239 358.9677 0001440 078.7294 281.4074 14.62916636 22749
0 VNREDSAT 1
1 39160U 13021B   13283.09105213  .00000314  00000-0  70505-4 0  5067
2 39160 098.1239 359.3043 0001434 077.2722 282.8648 14.62916920 22797
0 VNREDSAT 1
1 39160U 13021B   13283.22785557  .00000825  00000-0  16129-3 0  5065
2 39160 098.1245 359.4416 0001378 081.0651 279.1203 14.62917201 22812
0 VNREDSAT 1
1 39160U 13021B   13283.43303836  .00000338  00000-0  75172-4 0  5078
2 39160 098.1239 359.6411 0001423 076.3168 283.8194 14.62917402 22840
0 VNREDSAT 1
1 39160U 13021B   13283.63823021  .00000335  00000-0  74517-4 0  5072
2 39160 098.1239 359.8430 0001435 077.4744 282.6621 14.62917578 22877
0 VNREDSAT 1
1 39160U 13021B   13284.04861413  .00000345  00000-0  76572-4 0  5080
2 39160 098.1238 000.2469 0001447 075.7696 284.3677 14.62917981 22930
0 VNREDSAT 1
1 39160U 13021B   13284.39059988  .00000360  00000-0  79503-4 0  5099
2 39160 098.1237 000.5835 0001407 074.6742 285.4619 14.62918488 22981
0 VNREDSAT 1
1 39160U 13021B   13285.41655791  .00000398  00000-0  87003-4 0  5126
2 39160 098.1236 001.5933 0001393 071.6484 288.4876 14.62919789 23135
0 VNREDSAT 1
1 39160U 13021B   13285.75854365  .00000414  00000-0  90034-4 0  5139
2 39160 098.1235 001.9299 0001411 070.5666 289.5690 14.62920263 23184
0 VNREDSAT 1
1 39160U 13021B   13286.10052951  .00000435  00000-0  94174-4 0  5143
2 39160 098.1234 002.2664 0001409 069.0086 291.1281 14.62920800 23237
0 VNREDSAT 1
1 39160U 13021B   13286.44251486  .00000441  00000-0  95297-4 0  5159
2 39160 098.1233 002.6031 0001396 068.3309 291.8046 14.62921224 23285
0 VNREDSAT 1
1 39160U 13021B   13286.71610321  .00000449  00000-0  96860-4 0  5162
2 39160 098.1233 002.8724 0001400 068.5316 291.6039 14.62921592 23325
0 VNREDSAT 1
1 39160U 13021B   13287.05808880  .00000475  00000-0  10196-3 0  5176
2 39160 098.1232 003.2092 0001417 067.4340 292.7024 14.62922162 23375
0 VNREDSAT 1
1 39160U 13021B   13287.40007368  .00000489  00000-0  10467-3 0  5184
2 39160 098.1232 003.5457 0001379 067.9079 292.2273 14.62922696 23423
0 VNREDSAT 1
1 39160U 13021B   13287.74205881  .00000493  00000-0  10556-3 0  5196
2 39160 098.1232 003.8825 0001383 067.5539 292.5810 14.62923127 23472
0 VNREDSAT 1
1 39160U 13021B   13288.08404428  .00000497  00000-0  10617-3 0  5206
2 39160 098.1232 004.2194 0001391 066.7348 293.4005 14.62923478 23525
0 VNREDSAT 1
1 39160U 13021B   13288.42602909  .00000507  00000-0  10816-3 0  5212
2 39160 098.1230 004.5559 0001360 067.7414 292.3934 14.62923978 23571
0 VNREDSAT 1
1 39160U 13021B   13288.76801409  .00000509  00000-0  10852-3 0  5228
2 39160 098.1229 004.8925 0001367 067.0926 293.0424 14.62924385 23628
0 VNREDSAT 1
1 39160U 13021B   13289.10999919  .00000526  00000-0  11192-3 0  5239
2 39160 098.1228 005.2288 0001359 066.9322 293.2048 14.62924940 23679
0 VNREDSAT 1
1 39160U 13021B   13289.38358629  .00000535  00000-0  11373-3 0  5248
2 39160 098.1227 005.4982 0001334 066.6362 293.4982 14.62925383 23711
0 VNREDSAT 1
1 39160U 13021B   13289.72557088  .00000538  00000-0  11419-3 0  5251
2 39160 098.1227 005.8350 0001341 067.6338 292.5006 14.62925812 23765
0 VNREDSAT 1
1 39160U 13021B   13290.06755567  .00000550  00000-0  11658-3 0  5262
2 39160 098.1228 006.1717 0001341 070.1203 290.0160 14.62926306 23816
0 VNREDSAT 1
1 39160U 13021B   13290.40953977  .00000551  00000-0  11688-3 0  5270
2 39160 098.1229 006.5085 0001332 070.3277 289.8074 14.62926758 23868
0 VNREDSAT 1
1 39160U 13021B   13290.75152396  .00000549  00000-0  11646-3 0  5286
2 39160 098.1228 006.8450 0001334 071.3688 288.7659 14.62927173 23910
0 VNREDSAT 1
1 39160U 13021B   13291.09350833  .00000559  00000-0  11838-3 0  5295
2 39160 098.1230 007.1818 0001329 070.9249 289.2104 14.62927651 23964
0 VNREDSAT 1
1 39160U 13021B   13291.43549212  .00000562  00000-0  11889-3 0  5306
2 39160 098.1231 007.5184 0001314 070.3320 289.8020 14.62928120 24015
0 VNREDSAT 1
1 39160U 13021B   13291.70907936  .00000564  00000-0  11935-3 0  5312
2 39160 098.1231 007.7878 0001323 070.7462 289.3884 14.62928491 24056
0 VNREDSAT 1
1 39160U 13021B   13292.05106342  .00000575  00000-0  12151-3 0  5327
2 39160 098.1231 008.1245 0001327 069.4347 290.7007 14.62929011 24108
0 VNREDSAT 1
1 39160U 13021B   13292.39304682  .00000582  00000-0  12285-3 0  5338
2 39160 098.1231 008.4613 0001314 068.6694 291.4651 14.62929553 24151
0 VNREDSAT 1
1 39160U 13021B   13292.73503035  .00000588  00000-0  12394-3 0  5347
2 39160 098.1231 008.7979 0001331 070.0834 290.0513 14.62930066 24200
0 VNREDSAT 1
1 39160U 13021B   13293.07701403  .00000597  00000-0  12589-3 0  5351
2 39160 098.1232 009.1348 0001308 069.9081 290.2273 14.62930577 24258
0 VNREDSAT 1
1 39160U 13021B   13293.41899721  .00000604  00000-0  12725-3 0  5362
2 39160 098.1232 009.4714 0001287 068.9091 291.2254 14.62931106 24309
0 VNREDSAT 1
1 39160U 13021B   13293.76098044  .00000604  00000-0  12721-3 0  5376
2 39160 098.1232 009.8080 0001291 069.3382 290.7961 14.62931572 24353
0 VNREDSAT 1
1 39160U 13021B   13294.10296409  .00000599  00000-0  12627-3 0  5389
2 39160 098.1230 010.1445 0001290 069.6132 290.5218 14.62931910 24401
0 VNREDSAT 1
1 39160U 13021B   13294.44494679  .00000612  00000-0  12862-3 0  5393
2 39160 098.1229 010.4811 0001261 069.3161 290.8180 14.62932511 24450
0 VNREDSAT 1
1 39160U 13021B   13294.71853302  .00000619  00000-0  13008-3 0  5407
2 39160 098.1229 010.7505 0001285 071.2180 288.9161 14.62932955 24495
0 VNREDSAT 1
1 39160U 13021B   13295.06051611  .00000630  00000-0  13218-3 0  5416
2 39160 098.1228 011.0872 0001295 069.8041 290.3307 14.62933479 24542
0 VNREDSAT 1
1 39160U 13021B   13295.40249862  .00000636  00000-0  13333-3 0  5426
2 39160 098.1229 011.4238 0001278 069.0780 291.0562 14.62934036 24592
0 VNREDSAT 1
1 39160U 13021B   13295.74448121  .00000628  00000-0  13185-3 0  5439
2 39160 098.1228 011.7605 0001273 069.4727 290.6606 14.62934423 24642
0 VNREDSAT 1
1 39160U 13021B   13296.08646418  .00000631  00000-0  13246-3 0  5449
2 39160 098.1228 012.0970 0001284 070.8163 289.3186 14.62934869 24690
